{"type":"FeatureCollection","name":"skoledistrikter_frederiksberg","source":{"name":"skoledistrikter_frederiksberg","provider":"GeoFA / FKG (fkg.t_5710_born_skole_dis, kommunekode 147, statuskode 3, type Skole)","url":"https://geofa.geodanmark.dk/api/v2/sql/fkg?srs=4326&q=SELECT udd_distrikt_navn, geometri FROM fkg.t_5710_born_skole_dis WHERE kommunekode=147 AND statuskode=3 AND udd_distrikt_type_kode=5","crs":"EPSG:4326","dataVersion":"systid_fra 2022-09-29","retrieved":"2026-09-28","note":"name normalised to register.json spelling; sourceName = name as published. Tre Falke Skolen has no district polygon. Frederiksberg's own GC2 layer buo.skoledistrikter_2022 has the same polygons but lacks Skolen på Duevej, leaving a gap; GeoFA version is complete."},"features":[{"type":"Feature","properties":{"name":"Lindevangskolen","sourceName":"Lindevangskolen","schoolIds":["147002"]},"geometry":{"type":"MultiPolygon","coordinates":[[[[12.494366,55.683001],[12.494467,55.683104],[12.494395,55.68303],[12.494366,55.683001]]],[[[12.494366,55.683001],[12.494367,55.683],[12.494395,55.68303],[12.494488,55.683123],[12.494492,55.683126],[12.494595,55.68315],[12.494773,55.683306],[12.4948,55.683334],[12.494944,55.683488],[12.495131,55.68369],[12.495263,55.683906],[12.495377,55.684099],[12.495484,55.684317],[12.49567,55.684429],[12.495683,55.684536],[12.495857,55.684606],[12.495854,55.684563],[12.495875,55.684526],[12.495919,55.68453],[12.495983,55.684553],[12.495948,55.684397],[12.49591,55.684266],[12.495835,55.684113],[12.495925,55.684065],[12.495981,55.684095],[12.496367,55.684309],[12.496729,55.684507],[12.497093,55.684703],[12.497819,55.68509],[12.498034,55.685211],[12.497852,55.685318],[12.497849,55.685319],[12.498019,55.685412],[12.498045,55.685426],[12.498036,55.685431],[12.498208,55.685522],[12.498457,55.685654],[12.4989,55.68589],[12.499149,55.686022],[12.499464,55.686189],[12.499468,55.686187],[12.499669,55.686294],[12.499682,55.686286],[12.499885,55.686394],[12.49994,55.686422],[12.499976,55.68644],[12.499995,55.686449],[12.500048,55.686475],[12.500094,55.686496],[12.500156,55.686523],[12.500226,55.68655],[12.500333,55.686588],[12.500355,55.686597],[12.500375,55.686608],[12.500396,55.68662],[12.500414,55.686634],[12.500424,55.686647],[12.500432,55.686661],[12.500447,55.686714],[12.500531,55.686739],[12.500674,55.686787],[12.500842,55.686849],[12.501411,55.687085],[12.50146,55.687118],[12.502027,55.687504],[12.502053,55.687522],[12.502204,55.687625],[12.502215,55.687633],[12.502427,55.687777],[12.503976,55.688251],[12.506154,55.688555],[12.506383,55.688566],[12.506731,55.688584],[12.506841,55.688604],[12.507559,55.688736],[12.507667,55.688756],[12.50827,55.688865],[12.508401,55.688889],[12.508564,55.68891],[12.50869,55.688927],[12.509493,55.68902],[12.510403,55.689106],[12.510946,55.689237],[12.511016,55.689254],[12.511165,55.689289],[12.511274,55.689317],[12.511546,55.689384],[12.511826,55.689453],[12.512374,55.68917],[12.512488,55.688976],[12.513069,55.688906],[12.513436,55.688285],[12.514453,55.686506],[12.512257,55.683606],[12.510593,55.683899],[12.51053,55.683824],[12.510444,55.683692],[12.510239,55.683549],[12.509938,55.68349],[12.509073,55.682231],[12.509215,55.682135],[12.509194,55.682017],[12.509107,55.681965],[12.509521,55.681952],[12.510929,55.681871],[12.511712,55.682773],[12.51271,55.682597],[12.513203,55.682556],[12.513596,55.683273],[12.51786,55.682621],[12.519549,55.682317],[12.522813,55.681817],[12.522092,55.680747],[12.522069,55.680718],[12.52216,55.680601],[12.521918,55.680562],[12.521476,55.6796],[12.5214,55.679364],[12.522999,55.679578],[12.523638,55.679576],[12.52433,55.679502],[12.527687,55.679062],[12.527635,55.678885],[12.5276,55.678886],[12.527351,55.678903],[12.527252,55.678684],[12.527152,55.678462],[12.527152,55.678462],[12.527166,55.678408],[12.527494,55.678409],[12.5274,55.678108],[12.527369,55.678113],[12.527222,55.678134],[12.527168,55.678136],[12.52695,55.678125],[12.526834,55.678111],[12.526759,55.678098],[12.526653,55.67807],[12.52651,55.678017],[12.52639,55.677962],[12.526346,55.677965],[12.525879,55.678002],[12.525728,55.677549],[12.525722,55.677533],[12.525429,55.677388],[12.525221,55.677339],[12.525071,55.677303],[12.52497,55.677312],[12.524751,55.677333],[12.524446,55.677361],[12.52445,55.677367],[12.524324,55.677379],[12.523723,55.677439],[12.5224,55.677571],[12.522378,55.677503],[12.521312,55.67758],[12.521325,55.677628],[12.520853,55.677662],[12.520625,55.677852],[12.520238,55.678052],[12.520256,55.678136],[12.520124,55.678129],[12.520103,55.678305],[12.519806,55.678293],[12.519766,55.678466],[12.517274,55.678303],[12.517326,55.678005],[12.515211,55.67791],[12.514833,55.677948],[12.514733,55.67769],[12.514689,55.677664],[12.514717,55.677651],[12.515237,55.677585],[12.515176,55.677427],[12.514651,55.677483],[12.514119,55.676113],[12.512057,55.676027],[12.512029,55.675965],[12.511628,55.675651],[12.510018,55.675576],[12.509963,55.675843],[12.510003,55.676013],[12.510319,55.67672],[12.510882,55.676655],[12.51166,55.678615],[12.512144,55.678561],[12.512264,55.67881],[12.512182,55.678949],[12.503463,55.678643],[12.499606,55.678521],[12.498617,55.678458],[12.495597,55.682705],[12.494366,55.683001]]]]}},{"type":"Feature","properties":{"name":"Ny Hollænderskolen","sourceName":"Ny Hollænderskolen","schoolIds":["147044"]},"geometry":{"type":"MultiPolygon","coordinates":[[[[12.533234,55.678358],[12.540173,55.676748],[12.540126,55.676673],[12.540021,55.676671],[12.539753,55.676617],[12.539665,55.676436],[12.539481,55.676394],[12.53906,55.676465],[12.538906,55.676235],[12.53873,55.675867],[12.539563,55.675758],[12.539818,55.675854],[12.539875,55.675845],[12.540756,55.675723],[12.540697,55.675609],[12.540557,55.675339],[12.53992,55.67415],[12.539884,55.673978],[12.541527,55.673798],[12.541337,55.673684],[12.540899,55.673457],[12.540771,55.67298],[12.540456,55.671299],[12.540977,55.671061],[12.540556,55.670938],[12.540301,55.670863],[12.539885,55.670745],[12.539745,55.670705],[12.539622,55.67067],[12.539618,55.670669],[12.539511,55.670637],[12.539427,55.670296],[12.539405,55.670209],[12.538319,55.670293],[12.538071,55.670219],[12.537904,55.670172],[12.537603,55.670086],[12.537596,55.670084],[12.537202,55.669971],[12.536835,55.669866],[12.536271,55.669706],[12.535814,55.669576],[12.535783,55.669567],[12.535478,55.66948],[12.535449,55.669472],[12.535296,55.669429],[12.535053,55.669359],[12.534821,55.669293],[12.535035,55.668971],[12.534899,55.668934],[12.534931,55.668819],[12.534704,55.668762],[12.534617,55.66874],[12.534346,55.668671],[12.534309,55.668662],[12.533576,55.66847],[12.533509,55.668452],[12.532488,55.668184],[12.532379,55.668155],[12.531969,55.668077],[12.531545,55.667997],[12.530982,55.667881],[12.530435,55.667768],[12.530414,55.66776],[12.530376,55.667745],[12.530275,55.667866],[12.531147,55.67084],[12.528432,55.671034],[12.528472,55.671149],[12.529015,55.672977],[12.529992,55.676141],[12.530011,55.676138],[12.530756,55.676051],[12.530724,55.675947],[12.532449,55.675763],[12.532571,55.675753],[12.533234,55.678358]]]]}},{"type":"Feature","properties":{"name":"Skolen på Duevej","sourceName":"Skolen på Duevej","schoolIds":["147007"]},"geometry":{"type":"MultiPolygon","coordinates":[[[[12.516373,55.690579],[12.516461,55.690613],[12.51648,55.69062],[12.516511,55.690634],[12.516533,55.690643],[12.51683,55.690718],[12.51706,55.690772],[12.517382,55.690815],[12.51745,55.690828],[12.517525,55.690851],[12.517616,55.690894],[12.517854,55.691039],[12.517999,55.691123],[12.518299,55.691272],[12.518542,55.691396],[12.518801,55.691536],[12.519012,55.691665],[12.519194,55.691776],[12.519377,55.691881],[12.519424,55.69191],[12.519499,55.691957],[12.519565,55.692],[12.519711,55.69211],[12.519757,55.692143],[12.519899,55.692232],[12.520034,55.692309],[12.520108,55.692355],[12.520344,55.692519],[12.52042,55.692588],[12.520571,55.692741],[12.520649,55.692817],[12.520895,55.693004],[12.521044,55.693113],[12.521046,55.693115],[12.521104,55.693156],[12.521145,55.693202],[12.52119,55.693306],[12.521247,55.693366],[12.521436,55.693526],[12.521568,55.693616],[12.521699,55.693698],[12.521703,55.693701],[12.521712,55.693707],[12.521722,55.693713],[12.52173,55.693719],[12.521738,55.693724],[12.521747,55.69373],[12.521755,55.693737],[12.521764,55.693743],[12.521772,55.69375],[12.521776,55.693753],[12.521785,55.693759],[12.521793,55.693766],[12.521801,55.693772],[12.521808,55.693778],[12.521815,55.693785],[12.521823,55.693791],[12.52183,55.693798],[12.521838,55.693805],[12.52203,55.69401],[12.522295,55.694143],[12.522914,55.694433],[12.522974,55.694459],[12.523362,55.69462],[12.524691,55.695067],[12.524884,55.695131],[12.524968,55.695158],[12.525656,55.695311],[12.526061,55.695402],[12.526149,55.695419],[12.526503,55.695476],[12.526584,55.695487],[12.527306,55.695563],[12.527322,55.695555],[12.527808,55.69561],[12.528082,55.695641],[12.528158,55.69565],[12.528572,55.6957],[12.529419,55.695802],[12.529725,55.695834],[12.529822,55.69593],[12.529878,55.69598],[12.53014,55.696237],[12.530161,55.696257],[12.530384,55.696472],[12.530637,55.696716],[12.53121,55.696707],[12.531557,55.6967],[12.531904,55.69669],[12.53225,55.696677],[12.532183,55.696849],[12.532161,55.696905],[12.532085,55.697094],[12.53215,55.697131],[12.533021,55.69721],[12.53543,55.697431],[12.535455,55.697433],[12.535753,55.69746],[12.535962,55.697479],[12.536004,55.697483],[12.536218,55.697503],[12.536254,55.697507],[12.536312,55.697512],[12.536397,55.69752],[12.536398,55.69752],[12.536557,55.697536],[12.5373,55.697602],[12.537302,55.697603],[12.537828,55.697651],[12.538092,55.697677],[12.538299,55.697672],[12.53828,55.697315],[12.538269,55.697114],[12.538113,55.69701],[12.538104,55.697003],[12.537759,55.696799],[12.537696,55.696765],[12.537492,55.69665],[12.537355,55.696605],[12.537043,55.696527],[12.53694,55.696487],[12.536901,55.696473],[12.536889,55.696466],[12.536849,55.696443],[12.536804,55.696394],[12.536702,55.696266],[12.536644,55.696193],[12.536621,55.696163],[12.536575,55.696123],[12.536493,55.696087],[12.536377,55.696051],[12.536207,55.695995],[12.536098,55.695944],[12.535797,55.695697],[12.53577,55.695643],[12.535747,55.695558],[12.535691,55.695407],[12.535565,55.695122],[12.535527,55.695063],[12.535424,55.694979],[12.535416,55.694973],[12.53506,55.694692],[12.534836,55.694503],[12.534764,55.694442],[12.534818,55.694421],[12.534892,55.694389],[12.535016,55.69433],[12.53502,55.694328],[12.535085,55.694294],[12.535137,55.694257],[12.535574,55.693969],[12.535667,55.693907],[12.535728,55.693851],[12.535746,55.693806],[12.535868,55.693231],[12.535871,55.693174],[12.535866,55.693135],[12.535842,55.693086],[12.535734,55.692918],[12.535637,55.692766],[12.535601,55.692703],[12.535594,55.692687],[12.535578,55.692636],[12.535545,55.692516],[12.53553,55.692454],[12.535523,55.692431],[12.535525,55.692408],[12.53553,55.692375],[12.535649,55.69209],[12.535679,55.692042],[12.536568,55.691039],[12.536727,55.690866],[12.536741,55.690852],[12.536908,55.690677],[12.537126,55.69045],[12.537142,55.69043],[12.536768,55.690734],[12.53658,55.690935],[12.535317,55.690771],[12.534334,55.690923],[12.531893,55.69163],[12.531569,55.691574],[12.531433,55.691396],[12.530935,55.69134],[12.530881,55.691212],[12.53088,55.691212],[12.530971,55.690963],[12.53188,55.690703],[12.531291,55.689976],[12.530472,55.69024],[12.530016,55.690375],[12.527561,55.687853],[12.516753,55.69031],[12.516373,55.690579]]]]}},{"type":"Feature","properties":{"name":"Skolen på Grundtvigsvej","sourceName":"Skolen på Grundtvigsvej","schoolIds":["280091"]},"geometry":{"type":"MultiPolygon","coordinates":[[[[12.547558,55.678852],[12.547868,55.678785],[12.547817,55.678727],[12.547735,55.678591],[12.547891,55.678552],[12.54777,55.678362],[12.547968,55.678317],[12.547593,55.677726],[12.547694,55.677703],[12.547528,55.677451],[12.547181,55.677524],[12.546926,55.67714],[12.547085,55.677108],[12.546986,55.676955],[12.546812,55.676995],[12.54643,55.67642],[12.546329,55.676441],[12.546255,55.676451],[12.545751,55.675721],[12.545879,55.675501],[12.54558,55.675435],[12.54452,55.673685],[12.544426,55.673524],[12.541549,55.673796],[12.539907,55.673977],[12.539942,55.674149],[12.540579,55.675337],[12.54072,55.675608],[12.540779,55.675722],[12.539898,55.675843],[12.539841,55.675853],[12.539586,55.675757],[12.538753,55.675866],[12.538929,55.676234],[12.539083,55.676464],[12.539504,55.676393],[12.539688,55.676434],[12.539776,55.676616],[12.540043,55.67667],[12.540149,55.676672],[12.540195,55.676746],[12.533234,55.678358],[12.532647,55.676005],[12.532571,55.675753],[12.530724,55.675947],[12.530756,55.676051],[12.530011,55.676138],[12.530079,55.676324],[12.530225,55.676762],[12.529379,55.676854],[12.529277,55.676971],[12.529442,55.677605],[12.528403,55.677686],[12.528429,55.677774],[12.527917,55.67782],[12.527742,55.67797],[12.527392,55.678109],[12.527429,55.67841],[12.527162,55.678408],[12.527351,55.678903],[12.527635,55.678885],[12.527698,55.679069],[12.523643,55.679575],[12.522999,55.679578],[12.5214,55.679364],[12.521914,55.680562],[12.522423,55.680644],[12.524443,55.680352],[12.52745,55.680223],[12.528365,55.679953],[12.531961,55.67943],[12.533572,55.679302],[12.534036,55.68069],[12.534212,55.681422],[12.534776,55.681892],[12.536813,55.683692],[12.537387,55.684201],[12.539134,55.683596],[12.538188,55.682748],[12.540509,55.682151],[12.540512,55.682153],[12.540678,55.682109],[12.544027,55.681251],[12.543361,55.680489],[12.543164,55.680157],[12.547051,55.679278],[12.546821,55.678928],[12.547144,55.678853],[12.547126,55.678731],[12.547418,55.678649],[12.547558,55.678852]]]]}},{"type":"Feature","properties":{"name":"Skolen på La Cours Vej","sourceName":"Skolen på la Cours Vej","schoolIds":["147010"]},"geometry":{"type":"MultiPolygon","coordinates":[[[[12.511821,55.689453],[12.512999,55.689742],[12.513816,55.689943],[12.513908,55.689967],[12.514072,55.690014],[12.514497,55.690085],[12.514536,55.690091],[12.514722,55.690123],[12.515019,55.690163],[12.515277,55.690223],[12.515511,55.690277],[12.51563,55.690328],[12.515794,55.690414],[12.515831,55.690432],[12.5161,55.690565],[12.516189,55.690503],[12.51636,55.690574],[12.516373,55.690579],[12.516753,55.69031],[12.527561,55.687853],[12.530016,55.690375],[12.530472,55.69024],[12.531291,55.689976],[12.530627,55.689189],[12.530859,55.688981],[12.530244,55.688428],[12.530081,55.688283],[12.52973,55.687968],[12.529685,55.687919],[12.529678,55.687921],[12.529254,55.68754],[12.529215,55.687475],[12.528324,55.687666],[12.527053,55.686006],[12.526912,55.686035],[12.526261,55.686179],[12.526185,55.686201],[12.526068,55.686035],[12.528961,55.685353],[12.528892,55.685281],[12.528197,55.685058],[12.527665,55.684258],[12.527526,55.68373],[12.527513,55.683668],[12.527776,55.683607],[12.526769,55.682344],[12.523683,55.683013],[12.522813,55.681817],[12.519549,55.682317],[12.51786,55.682621],[12.51357,55.68326],[12.513153,55.682546],[12.51271,55.682597],[12.511712,55.682773],[12.510925,55.681871],[12.509847,55.681939],[12.509517,55.681952],[12.509118,55.68197],[12.509198,55.682021],[12.509211,55.682136],[12.509084,55.682231],[12.509934,55.68349],[12.510235,55.683549],[12.51044,55.683692],[12.510526,55.683824],[12.510589,55.683899],[12.512253,55.683606],[12.514449,55.686506],[12.513432,55.688285],[12.513065,55.688906],[12.512484,55.688976],[12.51237,55.68917],[12.511821,55.689453]]]]}},{"type":"Feature","properties":{"name":"Skolen på Nyelandsvej","sourceName":"Skolen på Nyelandsvej","schoolIds":["147012"]},"geometry":{"type":"MultiPolygon","coordinates":[[[[12.537142,55.69043],[12.537219,55.690331],[12.537309,55.690235],[12.537522,55.690027],[12.537633,55.689908],[12.537774,55.689789],[12.537839,55.68975],[12.537945,55.68971],[12.53814,55.689639],[12.538215,55.689609],[12.538331,55.689554],[12.538677,55.689369],[12.539053,55.689177],[12.539251,55.689075],[12.539957,55.688711],[12.540022,55.688677],[12.540284,55.688538],[12.540496,55.688425],[12.540555,55.688379],[12.540888,55.688032],[12.541181,55.687709],[12.541292,55.687661],[12.540305,55.686834],[12.539685,55.686275],[12.538653,55.68536],[12.537365,55.684202],[12.534753,55.681893],[12.53419,55.681423],[12.534013,55.680692],[12.533611,55.679431],[12.533572,55.679302],[12.531961,55.67943],[12.528365,55.679953],[12.52745,55.680223],[12.524443,55.680352],[12.522788,55.680593],[12.522423,55.680644],[12.522156,55.680601],[12.522069,55.680708],[12.522787,55.681803],[12.523683,55.683013],[12.526769,55.682344],[12.527776,55.683607],[12.527513,55.683668],[12.527526,55.68373],[12.527665,55.684258],[12.528197,55.685058],[12.528892,55.685281],[12.528961,55.685353],[12.526068,55.686035],[12.526185,55.686201],[12.526261,55.686179],[12.526912,55.686035],[12.527053,55.686006],[12.528324,55.687666],[12.529215,55.687475],[12.529254,55.68754],[12.529678,55.687921],[12.529685,55.687919],[12.52973,55.687968],[12.530081,55.688283],[12.530244,55.688428],[12.530859,55.688981],[12.530627,55.689189],[12.531291,55.689976],[12.53188,55.690703],[12.530971,55.690963],[12.53088,55.691212],[12.530881,55.691212],[12.530935,55.69134],[12.531433,55.691396],[12.531569,55.691574],[12.531893,55.69163],[12.534334,55.690923],[12.535317,55.690771],[12.53658,55.690935],[12.536768,55.690734],[12.537142,55.69043]]]]}},{"type":"Feature","properties":{"name":"Skolen ved Bulowsvej","sourceName":"Skolen ved Bulowsvej","schoolIds":["147008"]},"geometry":{"type":"MultiPolygon","coordinates":[[[[12.541292,55.687661],[12.541386,55.687621],[12.541449,55.687594],[12.541803,55.687355],[12.541991,55.687272],[12.542144,55.687212],[12.542124,55.687198],[12.542305,55.687119],[12.542434,55.687064],[12.542565,55.687013],[12.542699,55.686964],[12.542837,55.686917],[12.542977,55.686873],[12.544026,55.686557],[12.54415,55.686518],[12.54427,55.686477],[12.544388,55.686433],[12.544504,55.686388],[12.544616,55.686339],[12.544725,55.686289],[12.544831,55.686236],[12.544867,55.686218],[12.544903,55.686199],[12.545284,55.685992],[12.54615,55.685525],[12.546173,55.685538],[12.546393,55.68542],[12.546448,55.685392],[12.546506,55.685366],[12.546566,55.685343],[12.546629,55.685321],[12.546694,55.685302],[12.546764,55.685285],[12.546836,55.685271],[12.54691,55.685259],[12.546985,55.68525],[12.54706,55.685244],[12.547078,55.685234],[12.549134,55.685115],[12.549865,55.685073],[12.550161,55.685056],[12.551053,55.685004],[12.551372,55.684986],[12.551511,55.684978],[12.552377,55.684929],[12.552763,55.684904],[12.55324,55.684874],[12.553333,55.684859],[12.553402,55.684839],[12.553728,55.684727],[12.554213,55.684557],[12.554395,55.684494],[12.55462,55.684404],[12.554709,55.684357],[12.554896,55.684244],[12.555268,55.683853],[12.555235,55.683806],[12.555109,55.683622],[12.555079,55.683629],[12.554278,55.682465],[12.553939,55.681973],[12.553822,55.681802],[12.553579,55.681773],[12.552426,55.680132],[12.552345,55.680083],[12.552278,55.68015],[12.552217,55.680211],[12.552023,55.680169],[12.552075,55.680104],[12.55208,55.679983],[12.550762,55.678112],[12.547845,55.678786],[12.547535,55.678853],[12.547407,55.678669],[12.547104,55.678732],[12.547121,55.678854],[12.546799,55.678929],[12.547029,55.679279],[12.545099,55.679711],[12.543141,55.680158],[12.543298,55.680412],[12.544004,55.681252],[12.540656,55.68211],[12.539481,55.68242],[12.538995,55.682555],[12.538166,55.682749],[12.539111,55.683598],[12.537365,55.684202],[12.538653,55.68536],[12.539685,55.686275],[12.540305,55.686834],[12.541292,55.687661]]]]}},{"type":"Feature","properties":{"name":"Skolen ved Søerne","sourceName":"Skole ved Søerne","schoolIds":["147052"]},"geometry":{"type":"MultiPolygon","coordinates":[[[[12.553822,55.681802],[12.553692,55.681614],[12.554188,55.681498],[12.554267,55.681505],[12.554608,55.681532],[12.555051,55.681567],[12.555414,55.681596],[12.556658,55.681694],[12.556901,55.681714],[12.557341,55.681749],[12.557324,55.681694],[12.55732,55.681681],[12.55726,55.681471],[12.557168,55.681152],[12.557125,55.681001],[12.557061,55.680779],[12.55703,55.680672],[12.557015,55.680614],[12.557005,55.680576],[12.556955,55.680381],[12.55692,55.680269],[12.556841,55.679954],[12.556839,55.67993],[12.556771,55.679668],[12.55677,55.679665],[12.556691,55.679375],[12.556673,55.679308],[12.556632,55.679156],[12.5566,55.679035],[12.556526,55.678748],[12.556509,55.678682],[12.556439,55.678412],[12.556392,55.678229],[12.556371,55.67815],[12.556365,55.678127],[12.556349,55.678061],[12.556335,55.678006],[12.556324,55.677963],[12.556204,55.677494],[12.556187,55.677427],[12.556115,55.677144],[12.556039,55.676859],[12.556022,55.676797],[12.555794,55.675941],[12.555727,55.67569],[12.555727,55.675689],[12.55567,55.675463],[12.555545,55.674975],[12.555465,55.67466],[12.555457,55.67463],[12.555316,55.674081],[12.555305,55.674042],[12.555262,55.673874],[12.555249,55.673823],[12.555177,55.673545],[12.555145,55.673539],[12.555087,55.673527],[12.5541,55.673472],[12.554067,55.673472],[12.554063,55.673496],[12.553718,55.673574],[12.553485,55.673626],[12.553254,55.673678],[12.552453,55.673861],[12.552362,55.673882],[12.551948,55.673977],[12.55181,55.674009],[12.551593,55.674056],[12.551313,55.674117],[12.551009,55.674189],[12.550864,55.674223],[12.550755,55.674248],[12.550459,55.674317],[12.549927,55.67444],[12.549892,55.674426],[12.549896,55.674399],[12.549933,55.674153],[12.549952,55.674022],[12.549971,55.673893],[12.54999,55.673769],[12.550004,55.673665],[12.549854,55.673663],[12.549878,55.673463],[12.549879,55.673458],[12.549875,55.673458],[12.549891,55.673341],[12.549915,55.673343],[12.549919,55.673308],[12.549956,55.673069],[12.549994,55.672833],[12.549975,55.672729],[12.549951,55.672701],[12.549887,55.672697],[12.549771,55.6727],[12.54975,55.672673],[12.549527,55.672727],[12.54885,55.672891],[12.548468,55.672984],[12.548405,55.672992],[12.548402,55.672992],[12.548147,55.673021],[12.548051,55.673031],[12.548028,55.673034],[12.548009,55.673035],[12.547653,55.673061],[12.547525,55.673073],[12.547411,55.672999],[12.547367,55.672974],[12.547341,55.672965],[12.547315,55.672954],[12.547286,55.672945],[12.54726,55.672936],[12.547231,55.672929],[12.54721,55.672923],[12.547182,55.672917],[12.547137,55.672906],[12.547105,55.6729],[12.547061,55.672895],[12.547022,55.672891],[12.547074,55.672812],[12.546754,55.67272],[12.546093,55.672531],[12.546085,55.672529],[12.54516,55.672262],[12.545139,55.672256],[12.544964,55.672205],[12.544962,55.672205],[12.544648,55.672115],[12.544328,55.672022],[12.544132,55.671966],[12.543794,55.671869],[12.543525,55.671792],[12.543259,55.671716],[12.54299,55.671639],[12.542767,55.671575],[12.542544,55.671511],[12.542344,55.671453],[12.542283,55.671436],[12.542124,55.67139],[12.542016,55.671358],[12.542014,55.671358],[12.54176,55.671284],[12.541758,55.671284],[12.541387,55.671181],[12.541386,55.67118],[12.541196,55.671125],[12.541159,55.671114],[12.541042,55.67108],[12.540977,55.671061],[12.540456,55.671299],[12.540771,55.67298],[12.540899,55.673457],[12.541337,55.673684],[12.541527,55.673798],[12.544403,55.673526],[12.544497,55.673686],[12.545557,55.675436],[12.545856,55.675502],[12.545728,55.675722],[12.546232,55.676452],[12.546306,55.676442],[12.546408,55.676421],[12.546789,55.676996],[12.546964,55.676956],[12.547062,55.677109],[12.546903,55.677141],[12.547158,55.677526],[12.547505,55.677453],[12.547672,55.677704],[12.54757,55.677727],[12.547945,55.678318],[12.547747,55.678363],[12.547868,55.678553],[12.547712,55.678592],[12.547794,55.678728],[12.547845,55.678786],[12.550762,55.678112],[12.55208,55.679983],[12.552075,55.680104],[12.552023,55.680169],[12.552217,55.680211],[12.552278,55.68015],[12.552345,55.680083],[12.552426,55.680132],[12.553579,55.681773],[12.553822,55.681802]]]]}},{"type":"Feature","properties":{"name":"Søndermarkskolen","sourceName":"Søndermarkskolen","schoolIds":["147006"]},"geometry":{"type":"MultiPolygon","coordinates":[[[[12.517518,55.678328],[12.519762,55.678466],[12.519802,55.678293],[12.520098,55.678305],[12.52012,55.678129],[12.520252,55.678136],[12.520234,55.678052],[12.52062,55.677852],[12.520849,55.677662],[12.521321,55.677629],[12.521308,55.67758],[12.522374,55.677503],[12.522396,55.677571],[12.523719,55.677439],[12.52432,55.67738],[12.524445,55.677367],[12.524442,55.677361],[12.524747,55.677333],[12.524966,55.677313],[12.525066,55.677303],[12.525217,55.677339],[12.525425,55.677388],[12.525718,55.677533],[12.525724,55.677549],[12.525875,55.678002],[12.526342,55.677965],[12.526385,55.677962],[12.526506,55.678017],[12.526649,55.67807],[12.526755,55.678098],[12.52683,55.678111],[12.526945,55.678126],[12.527163,55.678136],[12.527217,55.678134],[12.527365,55.678113],[12.527395,55.678109],[12.527431,55.678097],[12.527504,55.678078],[12.527555,55.678061],[12.527627,55.678036],[12.527742,55.67797],[12.52784,55.677901],[12.527917,55.67782],[12.528429,55.677774],[12.528403,55.677686],[12.529016,55.677638],[12.529442,55.677605],[12.52941,55.677476],[12.529332,55.677183],[12.529294,55.67704],[12.529286,55.677017],[12.529277,55.676971],[12.529283,55.676949],[12.529334,55.676886],[12.529379,55.676854],[12.529929,55.676793],[12.530225,55.676762],[12.530079,55.676324],[12.53005,55.676328],[12.529992,55.676141],[12.529015,55.672977],[12.528472,55.671149],[12.528432,55.671034],[12.531147,55.67084],[12.530275,55.667866],[12.530376,55.667745],[12.530359,55.667747],[12.53006,55.667774],[12.529958,55.667783],[12.529953,55.667784],[12.529927,55.667771],[12.529918,55.667767],[12.529877,55.667751],[12.529836,55.667736],[12.529795,55.66772],[12.529753,55.667705],[12.529706,55.66769],[12.529659,55.667675],[12.529611,55.667661],[12.529563,55.667647],[12.529497,55.667631],[12.529459,55.667622],[12.529402,55.667608],[12.529345,55.667594],[12.529211,55.667563],[12.529053,55.667526],[12.52883,55.667476],[12.52847,55.6674],[12.528314,55.667369],[12.528168,55.667342],[12.528121,55.667333],[12.526583,55.667042],[12.526215,55.666972],[12.526177,55.666966],[12.525386,55.666831],[12.525345,55.666824],[12.524491,55.666684],[12.524338,55.66666],[12.523723,55.666559],[12.523571,55.666534],[12.523484,55.666521],[12.523469,55.666519],[12.523466,55.666518],[12.523429,55.666514],[12.5234,55.666511],[12.523371,55.666509],[12.523342,55.666507],[12.523313,55.666506],[12.523266,55.666667],[12.523255,55.666696],[12.523241,55.666725],[12.523089,55.666698],[12.522538,55.666719],[12.522527,55.666712],[12.522228,55.666786],[12.522227,55.666787],[12.521963,55.666851],[12.521707,55.666914],[12.52158,55.666945],[12.520956,55.667102],[12.520952,55.667103],[12.520872,55.667122],[12.520756,55.667151],[12.520764,55.667182],[12.520477,55.667203],[12.520377,55.667211],[12.52032,55.667215],[12.520329,55.667256],[12.520272,55.66727],[12.520177,55.667293],[12.519986,55.66734],[12.519538,55.667449],[12.519548,55.667517],[12.519275,55.66753],[12.519187,55.667534],[12.519126,55.667549],[12.518982,55.667583],[12.518498,55.667699],[12.518474,55.667705],[12.518299,55.667748],[12.518212,55.667769],[12.517921,55.667838],[12.517604,55.667914],[12.517602,55.667956],[12.517443,55.667954],[12.517339,55.667952],[12.517337,55.667989],[12.517036,55.668058],[12.51668,55.668149],[12.515814,55.66837],[12.51569,55.668401],[12.515633,55.668416],[12.51551,55.668447],[12.515369,55.668483],[12.515317,55.668497],[12.515087,55.668556],[12.515056,55.668564],[12.514731,55.668648],[12.51471,55.668653],[12.514647,55.668669],[12.514499,55.668708],[12.514457,55.668718],[12.514197,55.668786],[12.514155,55.668796],[12.51407,55.668818],[12.513996,55.668837],[12.513928,55.668855],[12.513922,55.668857],[12.513707,55.668912],[12.513573,55.668947],[12.513229,55.669035],[12.513212,55.669039],[12.513077,55.669074],[12.512941,55.66911],[12.512444,55.669238],[12.512343,55.669264],[12.512075,55.669334],[12.511887,55.669383],[12.511878,55.669385],[12.511778,55.669412],[12.511741,55.669421],[12.51161,55.669455],[12.511605,55.669457],[12.511401,55.669509],[12.511392,55.669511],[12.511004,55.669612],[12.510976,55.669515],[12.510961,55.669508],[12.510958,55.669507],[12.510906,55.669504],[12.510804,55.669499],[12.510699,55.669494],[12.510603,55.669489],[12.510324,55.669476],[12.510214,55.66947],[12.510195,55.669469],[12.510102,55.669465],[12.509992,55.669459],[12.509881,55.669454],[12.509778,55.669449],[12.509771,55.669448],[12.509658,55.669443],[12.509549,55.669438],[12.509437,55.669432],[12.509365,55.669429],[12.509328,55.669427],[12.509169,55.669419],[12.509009,55.669411],[12.508967,55.669409],[12.508898,55.669406],[12.508786,55.6694],[12.508676,55.669395],[12.508571,55.66939],[12.508565,55.669389],[12.508453,55.669384],[12.508341,55.669379],[12.508326,55.669378],[12.508233,55.669373],[12.508168,55.66937],[12.508121,55.669368],[12.508011,55.669363],[12.507899,55.669357],[12.507786,55.669352],[12.507773,55.669351],[12.507542,55.669338],[12.507464,55.669333],[12.507374,55.669328],[12.507247,55.66932],[12.507192,55.669317],[12.506949,55.669303],[12.506937,55.669302],[12.506635,55.669287],[12.506421,55.669276],[12.506234,55.669267],[12.506166,55.669264],[12.506047,55.669258],[12.505859,55.669248],[12.505738,55.669242],[12.505672,55.669239],[12.505483,55.669229],[12.505296,55.66922],[12.50524,55.669217],[12.505188,55.669214],[12.505127,55.669211],[12.504978,55.669204],[12.504927,55.669201],[12.504924,55.669201],[12.504921,55.669201],[12.504492,55.669179],[12.5043,55.66917],[12.50372,55.669143],[12.503597,55.669137],[12.503072,55.66911],[12.502631,55.669361],[12.502206,55.669342],[12.501056,55.669289],[12.501027,55.669123],[12.49879,55.669021],[12.496581,55.66893],[12.496577,55.66893],[12.496533,55.668928],[12.496419,55.669215],[12.496367,55.66937],[12.496225,55.669841],[12.495951,55.670755],[12.495921,55.670854],[12.495916,55.670864],[12.495883,55.670972],[12.495799,55.671284],[12.4957,55.671588],[12.495596,55.671897],[12.495477,55.672251],[12.495449,55.672329],[12.495289,55.672319],[12.495235,55.672503],[12.495222,55.672505],[12.495216,55.672523],[12.494608,55.672535],[12.493366,55.672559],[12.493366,55.672566],[12.493297,55.672602],[12.49323,55.673018],[12.493092,55.673865],[12.492969,55.674704],[12.492911,55.674976],[12.492784,55.675829],[12.492667,55.676671],[12.492628,55.676955],[12.492606,55.677235],[12.492598,55.67751],[12.4926,55.677616],[12.492444,55.67781],[12.492202,55.678087],[12.492136,55.678161],[12.492094,55.678246],[12.491328,55.679082],[12.491515,55.679175],[12.492814,55.682037],[12.49395,55.683024],[12.494364,55.682999],[12.494366,55.683001],[12.495597,55.682705],[12.497662,55.6798],[12.498613,55.678458],[12.503459,55.678643],[12.512178,55.678947],[12.512272,55.67881],[12.512139,55.678561],[12.511678,55.67862],[12.510891,55.676654],[12.510328,55.67672],[12.509999,55.676013],[12.509971,55.675843],[12.510027,55.675576],[12.511649,55.67565],[12.512025,55.675965],[12.512078,55.676027],[12.514115,55.676114],[12.51466,55.677483],[12.515184,55.677427],[12.515246,55.677585],[12.514713,55.677651],[12.514698,55.677664],[12.514741,55.67769],[12.514842,55.677948],[12.51522,55.677909],[12.517334,55.678005],[12.517283,55.678302],[12.517519,55.678327],[12.517518,55.678328]]]]}}]}